{
  "type": "FeatureCollection",
  "features": [
    {
      "type": "Feature",
      "properties": {
        "norad_id": 35455,
        "name": "COSMOS 2251 DEB",
        "group": "cosmos-2251-debris",
        "lat": -71.8469943869119,
        "lon": -122.24499720638586,
        "alt_km": 773.4245903322699,
        "timestamp": "2025-12-10T16:57:12.035069+00:00",
        "meta_object_name": "COSMOS 2251 DEB",
        "meta_object_id": "1993-036AKZ",
        "meta_epoch": "2025-12-10T07:23:15.145152",
        "meta_mean_motion": 14.49356293,
        "meta_eccentricity": 0.0098984,
        "meta_inclination": 74.0286,
        "meta_ra_of_asc_node": 299.3687,
        "meta_arg_of_pericenter": 43.4933,
        "meta_mean_anomaly": 317.3978,
        "meta_ephemeris_type": 0,
        "meta_classification_type": "U",
        "meta_norad_cat_id": 35455,
        "meta_element_set_no": 999,
        "meta_rev_at_epoch": 86508,
        "meta_bstar": 0.0024937,
        "meta_mean_motion_dot": 0.00010129,
        "meta_mean_motion_ddot": 0,
        "tle_line1": "1 35455U 93036AKZ 25344.30781418  .00010129  00000+0  24937-2 0  9992",
        "tle_line2": "2 35455  74.0286 299.3687 0098984  43.4933 317.3978 14.49356293865080"
      },
      "geometry": {
        "type": "Point",
        "coordinates": [
          -122.24499720638586,
          -71.8469943869119
        ]
      }
    },
    {
      "type": "Feature",
      "properties": {
        "norad_id": 35456,
        "name": "COSMOS 2251 DEB",
        "group": "cosmos-2251-debris",
        "lat": 43.05300952963948,
        "lon": -74.16556558821596,
        "alt_km": 703.146172034637,
        "timestamp": "2025-12-10T16:57:12.035078+00:00",
        "meta_object_name": "COSMOS 2251 DEB",
        "meta_object_id": "1993-036ALA",
        "meta_epoch": "2025-12-07T16:26:35.520576",
        "meta_mean_motion": 14.69275987,
        "meta_eccentricity": 0.0065481,
        "meta_inclination": 73.9502,
        "meta_ra_of_asc_node": 127.3161,
        "meta_arg_of_pericenter": 338.308,
        "meta_mean_anomaly": 21.5318,
        "meta_ephemeris_type": 0,
        "meta_classification_type": "U",
        "meta_norad_cat_id": 35456,
        "meta_element_set_no": 999,
        "meta_rev_at_epoch": 65801,
        "meta_bstar": 0.0028319025,
        "meta_mean_motion_dot": 0.00017275,
        "meta_mean_motion_ddot": 0,
        "tle_line1": "1 35456U 93036ALA 25341.68513334  .00017275  00000+0  28319-2 0  9998",
        "tle_line2": "2 35456  73.9502 127.3161 0065481 338.3080  21.5318 14.69275987658019"
      },
      "geometry": {
        "type": "Point",
        "coordinates": [
          -74.16556558821596,
          43.05300952963948
        ]
      }
    },
    {
      "type": "Feature",
      "properties": {
        "norad_id": 35459,
        "name": "COSMOS 2251 DEB",
        "group": "cosmos-2251-debris",
        "lat": 28.336535997136806,
        "lon": -159.95757891232324,
        "alt_km": 769.2749685900753,
        "timestamp": "2025-12-10T16:57:12.035088+00:00",
        "meta_object_name": "COSMOS 2251 DEB",
        "meta_object_id": "1993-036ALD",
        "meta_epoch": "2025-12-09T20:46:20.686944",
        "meta_mean_motion": 14.37455732,
        "meta_eccentricity": 0.00163842,
        "meta_inclination": 73.87,
        "meta_ra_of_asc_node": 192.6266,
        "meta_arg_of_pericenter": 141.5261,
        "meta_mean_anomaly": 218.7063,
        "meta_ephemeris_type": 0,
        "meta_classification_type": "U",
        "meta_norad_cat_id": 35459,
        "meta_element_set_no": 999,
        "meta_rev_at_epoch": 58320,
        "meta_bstar": 0.00039096413,
        "meta_mean_motion_dot": 1.144e-05,
        "meta_mean_motion_ddot": 0,
        "tle_line1": "1 35459U 93036ALD 25343.86551721  .00001144  00000+0  39096-3 0  9998",
        "tle_line2": "2 35459  73.8700 192.6266 0016384 141.5261 218.7063 14.37455732583203"
      },
      "geometry": {
        "type": "Point",
        "coordinates": [
          -159.95757891232324,
          28.336535997136806
        ]
      }
    },
    {
      "type": "Feature",
      "properties": {
        "norad_id": 35462,
        "name": "COSMOS 2251 DEB",
        "group": "cosmos-2251-debris",
        "lat": 25.45155892988985,
        "lon": 84.54771835210417,
        "alt_km": 849.2008046444907,
        "timestamp": "2025-12-10T16:57:12.035098+00:00",
        "meta_object_name": "COSMOS 2251 DEB",
        "meta_object_id": "1993-036ALG",
        "meta_epoch": "2025-12-10T04:28:25.290912",
        "meta_mean_motion": 14.29260092,
        "meta_eccentricity": 0.00868987,
        "meta_inclination": 74.0367,
        "meta_ra_of_asc_node": 273.3214,
        "meta_arg_of_pericenter": 308.9977,
        "meta_mean_anomaly": 50.3455,
        "meta_ephemeris_type": 0,
        "meta_classification_type": "U",
        "meta_norad_cat_id": 35462,
        "meta_element_set_no": 999,
        "meta_rev_at_epoch": 66344,
        "meta_bstar": 0.0025021839,
        "meta_mean_motion_dot": 6.606e-05,
        "meta_mean_motion_ddot": 0,
        "tle_line1": "1 35462U 93036ALG 25344.18640383  .00006606  00000+0  25022-2 0  9992",
        "tle_line2": "2 35462  74.0367 273.3214 0086898 308.9977  50.3455 14.29260092663443"
      },
      "geometry": {
        "type": "Point",
        "coordinates": [
          84.54771835210417,
          25.45155892988985
        ]
      }
    },
    {
      "type": "Feature",
      "properties": {
        "norad_id": 35465,
        "name": "COSMOS 2251 DEB",
        "group": "cosmos-2251-debris",
        "lat": 69.09252057092189,
        "lon": -27.874268025676034,
        "alt_km": 746.5845232819956,
        "timestamp": "2025-12-10T16:57:12.035108+00:00",
        "meta_object_name": "COSMOS 2251 DEB",
        "meta_object_id": "1993-036ALK",
        "meta_epoch": "2025-12-09T07:13:54.181920",
        "meta_mean_motion": 14.44306043,
        "meta_eccentricity": 0.0063804,
        "meta_inclination": 73.9983,
        "meta_ra_of_asc_node": 203.4389,
        "meta_arg_of_pericenter": 4.3071,
        "meta_mean_anomaly": 355.8621,
        "meta_ephemeris_type": 0,
        "meta_classification_type": "U",
        "meta_norad_cat_id": 35465,
        "meta_element_set_no": 999,
        "meta_rev_at_epoch": 87192,
        "meta_bstar": 0.00063465,
        "meta_mean_motion_dot": 2.21e-05,
        "meta_mean_motion_ddot": 0,
        "tle_line1": "1 35465U 93036ALK 25343.30132155  .00002210  00000+0  63465-3 0  9992",
        "tle_line2": "2 35465  73.9983 203.4389 0063804   4.3071 355.8621 14.44306043871925"
      },
      "geometry": {
        "type": "Point",
        "coordinates": [
          -27.874268025676034,
          69.09252057092189
        ]
      }
    },
    {
      "type": "Feature",
      "properties": {
        "norad_id": 35469,
        "name": "COSMOS 2251 DEB",
        "group": "cosmos-2251-debris",
        "lat": -71.05959484318613,
        "lon": -95.67320368328197,
        "alt_km": 719.6501608560338,
        "timestamp": "2025-12-10T16:57:12.035118+00:00",
        "meta_object_name": "COSMOS 2251 DEB",
        "meta_object_id": "1993-036ALP",
        "meta_epoch": "2025-12-10T09:08:19.184640",
        "meta_mean_motion": 14.49816344,
        "meta_eccentricity": 0.0077056,
        "meta_inclination": 74.0175,
        "meta_ra_of_asc_node": 28.3045,
        "meta_arg_of_pericenter": 184.2675,
        "meta_mean_anomaly": 175.7838,
        "meta_ephemeris_type": 0,
        "meta_classification_type": "U",
        "meta_norad_cat_id": 35469,
        "meta_element_set_no": 999,
        "meta_rev_at_epoch": 88077,
        "meta_bstar": 0.00017262,
        "meta_mean_motion_dot": 6.62e-06,
        "meta_mean_motion_ddot": 0,
        "tle_line1": "1 35469U 93036ALP 25344.38077760  .00000662  00000+0  17262-3 0  9998",
        "tle_line2": "2 35469  74.0175  28.3045 0077056 184.2675 175.7838 14.49816344880776"
      },
      "geometry": {
        "type": "Point",
        "coordinates": [
          -95.67320368328197,
          -71.05959484318613
        ]
      }
    },
    {
      "type": "Feature",
      "properties": {
        "norad_id": 35475,
        "name": "COSMOS 2251 DEB",
        "group": "cosmos-2251-debris",
        "lat": -31.7722423597759,
        "lon": 159.34685113064654,
        "alt_km": 666.5109307346447,
        "timestamp": "2025-12-10T16:57:12.035128+00:00",
        "meta_object_name": "COSMOS 2251 DEB",
        "meta_object_id": "1993-036ALV",
        "meta_epoch": "2025-12-09T05:09:42.823008",
        "meta_mean_motion": 14.69608937,
        "meta_eccentricity": 0.0020836,
        "meta_inclination": 74.0215,
        "meta_ra_of_asc_node": 172.4599,
        "meta_arg_of_pericenter": 245.5182,
        "meta_mean_anomaly": 114.3816,
        "meta_ephemeris_type": 0,
        "meta_classification_type": "U",
        "meta_norad_cat_id": 35475,
        "meta_element_set_no": 999,
        "meta_rev_at_epoch": 65565,
        "meta_bstar": 0.0022725,
        "meta_mean_motion_dot": 0.00013549,
        "meta_mean_motion_ddot": 0,
        "tle_line1": "1 35475U 93036ALV 25343.21507897  .00013549  00000+0  22725-2 0  9992",
        "tle_line2": "2 35475  74.0215 172.4599 0020836 245.5182 114.3816 14.69608937655652"
      },
      "geometry": {
        "type": "Point",
        "coordinates": [
          159.34685113064654,
          -31.7722423597759
        ]
      }
    }
  ]
}